HTV-X1                  
1 66174U 25241A   26061.93054995  .00009325  00000+0  18075-3 0  9999
2 66174  51.6319 105.7724 0008215 150.8374 209.3074 15.48408287555008
SZ-21 MODULE            
1 66515U 25246C   26061.55898934  .00039531  00000+0  34908-3 0  9995
2 66515  41.4734 247.2373 0001469 286.7563  73.3117 15.67907744 16956
SHENZHOU-22             
1 66645U 25272A   26061.80363536  .00017409  00000+0  21017-3 0  9998
2 66645  41.4651 250.0496 0006616 230.1207 129.9050 15.60315912267521
SOYUZ-MS 28             
1 66664U 25275A   26061.93054995  .00009325  00000+0  18075-3 0  9990
2 66664  51.6319 105.7724 0008215 150.8374 209.3074 15.48408287555057
DUPLEX                  
1 66906U 98067XS  26062.09931039  .00032492  00000+0  46792-3 0  9997
2 66906  51.6288 102.4033 0002012  88.3197 271.8024 15.55725286 14109
ISS OBJECT XT           
1 66907U 98067XT  26062.14622119  .00142412  00000+0  12921-2 0  9990
2 66907  51.6250  98.9571 0004595  37.5259 322.6057 15.67032672 14157
ISS OBJECT XU           
1 66908U 98067XU  26062.14485211  .00145090  00000+0  13112-2 0  9999
2 66908  51.6246  98.9445 0004720  40.6339 319.5009 15.67118412 14156
SILVERSAT               
1 66909U 98067XV  26062.09330892  .00175992  00000+0  14375-2 0  9994
2 66909  51.6248  98.6005 0005412  37.0222 323.1148 15.69479082 14158
ISS OBJECT XW           
1 66910U 98067XW  26062.13878020  .00130651  00000+0  12090-2 0  9996
2 66910  51.6245  98.8999 0004921  49.4010 310.7414 15.66585333 14159
ISS OBJECT XX           
1 66911U 98067XX  26061.40259724  .00209832  00000+0  15591-2 0  9997
2 66911  51.6217 101.4735 0006901  40.4383 319.7127 15.71628066 14047
ISS OBJECT XY           
1 66912U 98067XY  26062.12392627  .00089006  00000+0  98226-3 0  9994
2 66912  51.6265 100.3145 0002849  52.7988 307.3266 15.62320418 14124
ISS OBJECT XZ           
1 67683U 98067XZ  26062.09339650  .00038862  00000+0  65554-3 0  9995
2 67683  51.6311 104.6116 0009500 163.9375 196.1917 15.51220688  3764
GXIBA-1                 
1 67684U 98067YA  26061.49636616  .00076064  00000+0  11883-2 0  9992
2 67684  51.6300 107.3750 0011044 152.3200 207.8380 15.53047483  3678
CORAL                   
1 67685U 98067YB  26061.38181274  .00046607  00000+0  77682-3 0  9996
2 67685  51.6315 108.1094 0011582 157.7573 202.3921 15.51449802  3652
ISS OBJECT YC           
1 67686U 98067YC  26061.37845320  .00051991  00000+0  85445-3 0  9993
2 67686  51.6316 108.0894 0007717 125.5885 234.5825 15.51837466  3652
LEOPARD                 
1 67687U 98067YD  26061.64081302  .00041373  00000+0  69517-3 0  9991
2 67687  51.6316 106.8408 0007695 130.3148 229.8515 15.51318584  3615
ISS OBJECT YE           
1 67688U 98067YE  26061.50874384  .00050750  00000+0  83946-3 0  9998
2 67688  51.6317 107.4591 0007639 126.6437 233.5256 15.51667522  3594
